{"type": "FeatureCollection", "features": [ {"type": "Feature", "properties": {"norad_id": 30196, "name": "FENGYUN 1C DEB", "group": "fengyun-1c-debris", "lat": -57.5202785223569, "lon": -102.67410136067109, "alt_km": 866.172991515612, "timestamp": "2025-12-24T20:42:21.301247+00:00", "meta": {"OBJECT_NAME": "FENGYUN 1C DEB", "OBJECT_ID": "1999-025VD", "EPOCH": "2025-12-24T06:24:56.138688", "MEAN_MOTION": 14.2585089, "ECCENTRICITY": 0.00864865, "INCLINATION": 98.6395, "RA_OF_ASC_NODE": 90.557, "ARG_OF_PERICENTER": 29.8733, "MEAN_ANOMALY": 34.4885, "EPHEMERIS_TYPE": 0, "CLASSIFICATION_TYPE": "U", "NORAD_CAT_ID": 30196, "ELEMENT_SET_NO": 999, "REV_AT_EPOCH": 98529, "BSTAR": 5.7351958e-05, "MEAN_MOTION_DOT": 9.8e-07, "MEAN_MOTION_DDOT": 0}, "tle": {"line1": "1 30196U 99025VD  25358.26731642  .00000098  00000+0  57352-4 0  9990", "line2": "2 30196  98.6395  90.5570 0086486  29.8733  34.4885 14.25850890985298"}}, "geometry": {"type": "Point", "coordinates": [-102.67410136067109, -57.5202785223569]}}, {"type": "Feature", "properties": {"norad_id": 30197, "name": "FENGYUN 1C DEB", "group": "fengyun-1c-debris", "lat": -39.443630177381365, "lon": 97.25005887789406, "alt_km": 743.2694660303932, "timestamp": "2025-12-24T20:42:21.301257+00:00", "meta": {"OBJECT_NAME": "FENGYUN 1C DEB", "OBJECT_ID": "1999-025VE", "EPOCH": "2025-12-24T03:13:38.260704", "MEAN_MOTION": 14.37238709, "ECCENTRICITY": 0.00573349, "INCLINATION": 98.9398, "RA_OF_ASC_NODE": 283.9342, "ARG_OF_PERICENTER": 180.5883, "MEAN_ANOMALY": 232.9037, "EPHEMERIS_TYPE": 0, "CLASSIFICATION_TYPE": "U", "NORAD_CAT_ID": 30197, "ELEMENT_SET_NO": 999, "REV_AT_EPOCH": 98650, "BSTAR": 0.00065369412, "MEAN_MOTION_DOT": 1.937e-05, "MEAN_MOTION_DDOT": 0}, "tle": {"line1": "1 30197U 99025VE  25358.13447061  .00001937  00000+0  65369-3 0  9995", "line2": "2 30197  98.9398 283.9342 0057334 180.5883 232.9037 14.37238709986502"}}, "geometry": {"type": "Point", "coordinates": [97.25005887789406, -39.443630177381365]}}, {"type": "Feature", "properties": {"norad_id": 30198, "name": "FENGYUN 1C DEB", "group": "fengyun-1c-debris", "lat": 27.081082192516465, "lon": 125.58996261781618, "alt_km": 775.1710238800406, "timestamp": "2025-12-24T20:42:21.301267+00:00", "meta": {"OBJECT_NAME": "FENGYUN 1C DEB", "OBJECT_ID": "1999-025VF", "EPOCH": "2025-12-24T03:11:10.793184", "MEAN_MOTION": 14.5052404, "ECCENTRICITY": 0.0106917, "INCLINATION": 98.4486, "RA_OF_ASC_NODE": 129.2159, "ARG_OF_PERICENTER": 163.7561, "MEAN_ANOMALY": 14.9575, "EPHEMERIS_TYPE": 0, "CLASSIFICATION_TYPE": "U", "NORAD_CAT_ID": 30198, "ELEMENT_SET_NO": 999, "REV_AT_EPOCH": 98672, "BSTAR": 0.0019649857, "MEAN_MOTION_DOT": 8.241e-05, "MEAN_MOTION_DDOT": 0}, "tle": {"line1": "1 30198U 99025VF  25358.13276381  .00008241  00000+0  19650-2 0  9997", "line2": "2 30198  98.4486 129.2159 0106917 163.7561  14.9575 14.50524040986722"}}, "geometry": {"type": "Point", "coordinates": [125.58996261781618, 27.081082192516465]}}, {"type": "Feature", "properties": {"norad_id": 30199, "name": "FENGYUN 1C DEB", "group": "fengyun-1c-debris", "lat": -65.51958966816552, "lon": -176.5856515502737, "alt_km": 720.0355739351016, "timestamp": "2025-12-24T20:42:21.301276+00:00", "meta": {"OBJECT_NAME": "FENGYUN 1C DEB", "OBJECT_ID": "1999-025VG", "EPOCH": "2025-12-24T01:18:58.425696", "MEAN_MOTION": 14.3857682, "ECCENTRICITY": 0.00777221, "INCLINATION": 98.3835, "RA_OF_ASC_NODE": 21.5232, "ARG_OF_PERICENTER": 274.3447, "MEAN_ANOMALY": 111.2788, "EPHEMERIS_TYPE": 0, "CLASSIFICATION_TYPE": "U", "NORAD_CAT_ID": 30199, "ELEMENT_SET_NO": 999, "REV_AT_EPOCH": 98573, "BSTAR": 0.00095385874, "MEAN_MOTION_DOT": 2.979e-05, "MEAN_MOTION_DDOT": 0}, "tle": {"line1": "1 30199U 99025VG  25358.05484289  .00002979  00000+0  95386-3 0  9990", "line2": "2 30199  98.3835  21.5232 0077722 274.3447 111.2788 14.38576820985735"}}, "geometry": {"type": "Point", "coordinates": [-176.5856515502737, -65.51958966816552]}}, {"type": "Feature", "properties": {"norad_id": 30200, "name": "FENGYUN 1C DEB", "group": "fengyun-1c-debris", "lat": -51.500418957099946, "lon": 2.386660064944508, "alt_km": 928.1350474850942, "timestamp": "2025-12-24T20:42:21.301286+00:00", "meta": {"OBJECT_NAME": "FENGYUN 1C DEB", "OBJECT_ID": "1999-025VH", "EPOCH": "2025-12-23T11:32:48.580512", "MEAN_MOTION": 14.22283988, "ECCENTRICITY": 0.01475283, "INCLINATION": 99.1125, "RA_OF_ASC_NODE": 192.5998, "ARG_OF_PERICENTER": 68.7513, "MEAN_ANOMALY": 292.9347, "EPHEMERIS_TYPE": 0, "CLASSIFICATION_TYPE": "U", "NORAD_CAT_ID": 30200, "ELEMENT_SET_NO": 999, "REV_AT_EPOCH": 98135, "BSTAR": 0.0001290885, "MEAN_MOTION_DOT": 2.74e-06, "MEAN_MOTION_DDOT": 0}, "tle": {"line1": "1 30200U 99025VH  25357.48111783  .00000274  00000+0  12909-3 0  9991", "line2": "2 30200  99.1125 192.5998 0147528  68.7513 292.9347 14.22283988981353"}}, "geometry": {"type": "Point", "coordinates": [2.386660064944508, -51.500418957099946]}}, {"type": "Feature", "properties": {"norad_id": 30201, "name": "FENGYUN 1C DEB", "group": "fengyun-1c-debris", "lat": 7.9438678191405625, "lon": -44.78535148384219, "alt_km": 822.7294331768671, "timestamp": "2025-12-24T20:42:21.301297+00:00", "meta": {"OBJECT_NAME": "FENGYUN 1C DEB", "OBJECT_ID": "1999-025VJ", "EPOCH": "2025-12-23T08:27:33.621408", "MEAN_MOTION": 14.22962013, "ECCENTRICITY": 0.00287357, "INCLINATION": 99.4016, "RA_OF_ASC_NODE": 132.2788, "ARG_OF_PERICENTER": 281.9343, "MEAN_ANOMALY": 77.8611, "EPHEMERIS_TYPE": 0, "CLASSIFICATION_TYPE": "U", "NORAD_CAT_ID": 30201, "ELEMENT_SET_NO": 999, "REV_AT_EPOCH": 97978, "BSTAR": 0.00041224662, "MEAN_MOTION_DOT": 8.82e-06, "MEAN_MOTION_DDOT": 0}, "tle": {"line1": "1 30201U 99025VJ  25357.35247247  .00000882  00000+0  41225-3 0  9991", "line2": "2 30201  99.4016 132.2788 0028735 281.9343  77.8611 14.22962013979783"}}, "geometry": {"type": "Point", "coordinates": [-44.78535148384219, 7.9438678191405625]}}, {"type": "Feature", "properties": {"norad_id": 30202, "name": "FENGYUN 1C DEB", "group": "fengyun-1c-debris", "lat": -3.393921316319489, "lon": 97.02492416518224, "alt_km": 696.055053466047, "timestamp": "2025-12-24T20:42:21.301307+00:00", "meta": {"OBJECT_NAME": "FENGYUN 1C DEB", "OBJECT_ID": "1999-025VK", "EPOCH": "2025-12-24T05:50:33.495072", "MEAN_MOTION": 14.52550802, "ECCENTRICITY": 0.00381127, "INCLINATION": 98.6405, "RA_OF_ASC_NODE": 95.8708, "ARG_OF_PERICENTER": 23.0568, "MEAN_ANOMALY": 337.2327, "EPHEMERIS_TYPE": 0, "CLASSIFICATION_TYPE": "U", "NORAD_CAT_ID": 30202, "ELEMENT_SET_NO": 999, "REV_AT_EPOCH": 98456, "BSTAR": 0.0022095151, "MEAN_MOTION_DOT": 9.078e-05, "MEAN_MOTION_DDOT": 0}, "tle": {"line1": "1 30202U 99025VK  25358.24344323  .00009078  00000+0  22095-2 0  9993", "line2": "2 30202  98.6405  95.8708 0038112  23.0568 337.2327 14.52550802984568"}}, "geometry": {"type": "Point", "coordinates": [97.02492416518224, -3.393921316319489]}}, {"type": "Feature", "properties": {"norad_id": 30205, "name": "FENGYUN 1C DEB", "group": "fengyun-1c-debris", "lat": 56.99479731874335, "lon": -56.12075360067006, "alt_km": 849.4661936490857, "timestamp": "2025-12-24T20:42:21.301317+00:00", "meta": {"OBJECT_NAME": "FENGYUN 1C DEB", "OBJECT_ID": "1999-025VN", "EPOCH": "2025-12-24T06:32:50.041824", "MEAN_MOTION": 13.88050481, "ECCENTRICITY": 0.01213588, "INCLINATION": 98.9967, "RA_OF_ASC_NODE": 109.1936, "ARG_OF_PERICENTER": 148.6929, "MEAN_ANOMALY": 267.3802, "EPHEMERIS_TYPE": 0, "CLASSIFICATION_TYPE": "U", "NORAD_CAT_ID": 30205, "ELEMENT_SET_NO": 999, "REV_AT_EPOCH": 95798, "BSTAR": 0.00029127464, "MEAN_MOTION_DOT": 3.26e-06, "MEAN_MOTION_DDOT": 0}, "tle": {"line1": "1 30205U 99025VN  25358.27280141  .00000326  00000+0  29127-3 0  9997", "line2": "2 30205  98.9967 109.1936 0121358 148.6929 267.3802 13.88050481957982"}}, "geometry": {"type": "Point", "coordinates": [-56.12075360067006, 56.99479731874335]}}, {"type": "Feature", "properties": {"norad_id": 30206, "name": "FENGYUN 1C DEB", "group": "fengyun-1c-debris", "lat": -14.31575708818998, "lon": 175.71696353067873, "alt_km": 832.4260542329876, "timestamp": "2025-12-24T20:42:21.301326+00:00", "meta": {"OBJECT_NAME": "FENGYUN 1C DEB", "OBJECT_ID": "1999-025VP", "EPOCH": "2025-12-23T23:55:31.570752", "MEAN_MOTION": 14.49199765, "ECCENTRICITY": 0.0145172, "INCLINATION": 98.232, "RA_OF_ASC_NODE": 356.989, "ARG_OF_PERICENTER": 1.957, "MEAN_ANOMALY": 358.2162, "EPHEMERIS_TYPE": 0, "CLASSIFICATION_TYPE": "U", "NORAD_CAT_ID": 30206, "ELEMENT_SET_NO": 999, "REV_AT_EPOCH": 99564, "BSTAR": 0.00049249105, "MEAN_MOTION_DOT": 2.095e-05, "MEAN_MOTION_DDOT": 0}, "tle": {"line1": "1 30206U 99025VP  25357.99689318  .00002095  00000+0  49249-3 0  9997", "line2": "2 30206  98.2320 356.9890 0145172   1.9570 358.2162 14.49199765995644"}}, "geometry": {"type": "Point", "coordinates": [175.71696353067873, -14.31575708818998]}}, {"type": "Feature", "properties": {"norad_id": 30207, "name": "FENGYUN 1C DEB", "group": "fengyun-1c-debris", "lat": -10.729753313205235, "lon": 110.07073222223029, "alt_km": 1081.4825131403395, "timestamp": "2025-12-24T20:42:21.301336+00:00", "meta": {"OBJECT_NAME": "FENGYUN 1C DEB", "OBJECT_ID": "1999-025VQ", "EPOCH": "2025-12-24T07:06:03.422016", "MEAN_MOTION": 13.79143327, "ECCENTRICITY": 0.02607912, "INCLINATION": 98.5741, "RA_OF_ASC_NODE": 107.9188, "ARG_OF_PERICENTER": 117.1929, "MEAN_ANOMALY": 301.5559, "EPHEMERIS_TYPE": 0, "CLASSIFICATION_TYPE": "U", "NORAD_CAT_ID": 30207, "ELEMENT_SET_NO": 999, "REV_AT_EPOCH": 95222, "BSTAR": 0.00019570633, "MEAN_MOTION_DOT": 2.22e-06, "MEAN_MOTION_DDOT": 0}, "tle": {"line1": "1 30207U 99025VQ  25358.29587294  .00000222  00000+0  19571-3 0  9997", "line2": "2 30207  98.5741 107.9188 0260791 117.1929 301.5559 13.79143327952225"}}, "geometry": {"type": "Point", "coordinates": [110.07073222223029, -10.729753313205235]}}]}